NORAD_CAT_ID,OBJECT_NAME,OBJECT_TYPE,EPOCH,MEAN_MOTION,ECCENTRICITY,INCLINATION,RA_OF_ASC_NODE,ARG_OF_PERICENTER,MEAN_ANOMALY,BSTAR,MEAN_MOTION_DOT,MEAN_MOTION_DDOT,TLE_LINE0,TLE_LINE1,TLE_LINE2,SEMIMAJOR_AXIS,PERIOD,APOGEE,PERIGEE,DECAYED
56793.0,STARLINK-6052,PAYLOAD,2023-10-17 16:38:45,14.99294674,0.0003233,70.0001,28.1253,270.3605,89.7184,0.00022124,2.614e-05,0.0,0 STARLINK-6052,1 56793U 23078AC  23290.69358717  .00002614  00000-0  22124-3 0  9999,2 56793  70.0001  28.1253 0003233 270.3605  89.7184 14.99294674 22023,6947.211,96.045,571.322,566.83,0.0
56793.0,STARLINK-6052,PAYLOAD,2023-10-18 16:39:50,14.99308812,0.0002626,69.9999,25.5975,264.3273,95.7587,-7.2632e-05,-9.83e-06,0.0,0 STARLINK-6052,1 56793U 23078AC  23291.69433663 -.00000983  00000-0 -72632-4 0  9993,2 56793  69.9999  25.5975 0002626 264.3273  95.7587 14.99308812 22177,6947.168,96.044,570.857,567.208,0.0
56793.0,STARLINK-6052,PAYLOAD,2023-10-19 10:16:37,14.99365907,0.0002864,70.0003,23.7457,272.7705,87.3126,-0.00090458,-0.00011163,0.0,0 STARLINK-6052,1 56793U 23078AC  23292.42820732 -.00011163  00000-0 -90458-3 0  9999,2 56793  70.0003  23.7457 0002864 272.7705  87.3126 14.99365907 22284,6946.991,96.041,570.846,566.867,0.0
56793.0,STARLINK-6052,PAYLOAD,2023-10-19 11:52:42,14.99305891,0.0002763,70.0003,23.5774,267.8558,92.2285,8.1327e-05,9.02e-06,0.0,0 STARLINK-6052,1 56793U 23078AC  23292.49493280  .00000902  00000-0  81327-4 0  9993,2 56793  70.0003  23.5774 0002763 267.8558  92.2285 14.99305891 22033,6947.177,96.044,570.961,567.122,0.0
56793.0,STARLINK-6052,PAYLOAD,2023-10-19 16:40:53,14.993689,0.0002793,70.0,23.072,273.416,86.668,-0.0008001,-9.887e-05,0.0,0 STARLINK-6052,1 56793U 23078AC  23292.69506035 -.00009887  00000-0 -80010-3 0  9998,2 56793  70.0000  23.0720 0002793 273.4160  86.6680 14.99368900 22060,6946.982,96.04,570.787,566.907,0.0
56793.0,STARLINK-6052,PAYLOAD,2023-10-19 23:05:12,14.99317563,0.0001697,70.0025,22.395,279.503,80.5938,-0.00022793,-2.882e-05,0.0,0 STARLINK-6052,1 56793U 23078AC  23292.96195087 -.00002882  00000-0 -22793-3 0  9991,2 56793  70.0025  22.3950 0001697 279.5030  80.5938 14.99317563 22360,6947.141,96.044,570.185,567.827,0.0
56793.0,STARLINK-6052,PAYLOAD,2023-10-20 10:17:43,14.99290156,0.0002519,70.002,21.2228,262.311,97.7763,-6.9312e-05,-9.41e-06,0.0,0 STARLINK-6052,1 56793U 23078AC  23293.42898001 -.00000941  00000-0 -69312-4 0  9992,2 56793  70.0020  21.2228 0002519 262.3110  97.7763 14.99290156 22436,6947.225,96.045,570.84,567.34,0.0
56793.0,STARLINK-6052,PAYLOAD,2023-10-20 11:53:48,14.99287723,0.000263,70.0008,21.0501,258.2081,101.8784,-0.00011918,-1.551e-05,0.0,0 STARLINK-6052,1 56793U 23078AC  23293.49569962 -.00001551  00000-0 -11918-3 0  9996,2 56793  70.0008  21.0501 0002630 258.2081 101.8784 14.99287723 22187,6947.233,96.046,570.925,567.271,0.0
56793.0,STARLINK-6052,PAYLOAD,2023-10-21 10:18:47,14.99305432,0.0002741,70.0007,18.6929,263.2109,96.8739,-2.6075e-05,-4.13e-06,0.0,0 STARLINK-6052,1 56793U 23078AC  23294.42972132 -.00000413  00000-0 -26075-4 0  9994,2 56793  70.0007  18.6929 0002741 263.2109  96.8739 14.99305432 22587,6947.178,96.044,570.947,567.139,0.0
56793.0,STARLINK-6052,PAYLOAD,2023-10-21 11:54:52,14.99305584,0.0002733,70.0008,18.5247,262.3337,97.7512,-1.5865e-05,-2.88e-06,0.0,0 STARLINK-6052,1 56793U 23078AC  23294.49643751 -.00000288  00000-0 -15865-4 0  9998,2 56793  70.0008  18.5247 0002733 262.3337  97.7512 14.99305584 22334,6947.178,96.044,570.941,567.144,0.0
56793.0,STARLINK-6052,PAYLOAD,2023-10-21 16:43:12,14.99220854,0.0003463,70.002,18.0197,214.4697,145.6239,-0.00089377,-0.00010991,0.0,0 STARLINK-6052,1 56793U 23078AC  23294.69666706 -.00010991  00000-0 -89377-3 0  9995,2 56793  70.0020  18.0197 0003463 214.4697 145.6239 14.99220854 22622,6947.439,96.05,571.71,566.898,0.0
56793.0,STARLINK-6052,PAYLOAD,2023-10-21 21:31:38,14.99060709,0.0003165,70.0019,17.5132,248.3818,111.7005,-0.0026329,-0.00031965,0.0,0 STARLINK-6052,1 56793U 23078AC  23294.89697809 -.00031965  00000-0 -26329-2 0  9996,2 56793  70.0019  17.5132 0003165 248.3818 111.7005 14.99060709 22393,6947.934,96.06,571.998,567.6,0.0
56793.0,STARLINK-6052,PAYLOAD,2023-10-21 23:07:57,14.98887872,0.0002362,70.002,17.3447,267.2833,92.8056,-0.0043299,-0.0005212,0.0,0 STARLINK-6052,1 56793U 23078AC  23294.96385961 -.00052120  00000-0 -43299-2 0  9998,2 56793  70.0020  17.3447 0002362 267.2833  92.8056 14.98887872 22669,6948.468,96.071,571.974,568.692,0.0
56793.0,STARLINK-6052,PAYLOAD,2023-10-22 10:20:50,14.98727336,0.0002885,70.0013,16.1675,249.1287,110.9563,-0.0053082,-0.00063509,0.0,0 STARLINK-6052,1 56793U 23078AC  23295.43113595 -.00063509  00000-0 -53082-2 0  9997,2 56793  70.0013  16.1675 0002885 249.1287 110.9563 14.98727336 22734,6948.964,96.082,572.834,568.825,0.0
56793.0,STARLINK-6052,PAYLOAD,2023-10-22 13:33:02,14.98724071,0.0003404,69.9993,15.8295,264.22,95.8572,-0.0052714,-0.0006307,0.0,0 STARLINK-6052,1 56793U 23078AC  23295.56461652 -.00063070  00000-0 -52714-2 0  9995,2 56793  69.9993  15.8295 0003404 264.2200  95.8572 14.98724071 22490,6948.975,96.082,573.205,568.474,0.0
56793.0,STARLINK-6052,PAYLOAD,2023-10-22 15:09:09,14.98715992,0.0003026,70.0002,15.661,246.1903,113.8939,-0.0052064,-0.00062286,0.0,0 STARLINK-6052,1 56793U 23078AC  23295.63136144 -.00062286  00000-0 -52064-2 0  9994,2 56793  70.0002  15.6610 0003026 246.1903 113.8939 14.98715992 22762,6948.999,96.082,572.967,568.762,0.0
56793.0,STARLINK-6052,PAYLOAD,2023-10-23 15:10:52,14.9863931,0.0003291,70.0,13.1357,262.7305,97.348,-0.0046326,-0.00055377,0.0,0 STARLINK-6052,1 56793U 23078AC  23296.63255618 -.00055377  00000-0 -46326-2 0  9990,2 56793  70.0000  13.1357 0003291 262.7305  97.3480 14.98639310 22918,6949.237,96.087,573.389,568.815,0.0
56793.0,STARLINK-6052,PAYLOAD,2023-10-24 03:59:55,14.9845095,0.0004072,69.9997,11.7878,253.6044,106.4667,-0.002074,-0.00024832,0.0,0 STARLINK-6052,1 56793U 23078AC  23297.16661679 -.00024832  00000-0 -20740-2 0  9991,2 56793  69.9997  11.7878 0004072 253.6044 106.4667 14.98450950 22997,6949.819,96.099,574.514,568.854,0.0
56793.0,STARLINK-6052,PAYLOAD,2023-10-24 12:00:00,14.98342296,0.0003426,70.002,10.9482,272.416,85.3678,-0.0022927,-0.00027352,0.0,0 STARLINK-6052,1 56793U 23078AC  23297.50001157 -.00027352  00000-0 -22927-2 0  9997,2 56793  70.0020  10.9482 0003426 272.4160  85.3678 14.98342296 23046,6950.155,96.106,574.401,569.639,0.0
56793.0,STARLINK-6052,PAYLOAD,2023-10-24 14:00:01,14.98328227,0.0003404,70.0021,10.7381,273.3852,173.7749,-0.0002484,-3.056e-05,0.0,0 STARLINK-6052,1 56793U 23078AC  23297.58334491 -.00003056  00000-0 -24840-3 0  9997,2 56793  70.0021  10.7381 0003404 273.3852 173.7749 14.98328227  5855,6950.198,96.107,574.429,569.698,0.0
56793.0,STARLINK-6052,PAYLOAD,2023-10-24 16:00:01,14.98316751,0.0003422,70.0019,10.5279,273.8912,262.7058,0.0015123,0.00017992,0.0,0 STARLINK-6052,1 56793U 23078AC  23297.66668981  .00017992  00000-0  15123-2 0  9995,2 56793  70.0019  10.5279 0003422 273.8912 262.7058 14.98316751  5871,6950.234,96.108,574.477,569.72,0.0
56793.0,STARLINK-6052,PAYLOAD,2023-10-25 13:38:47,14.98331154,0.0003047,69.9999,8.2544,265.6446,94.4364,-0.00012278,-1.558e-05,0.0,0 STARLINK-6052,1 56793U 23078AC  23298.56860205 -.00001558  00000-0 -12278-3 0  9990,2 56793  69.9999   8.2544 0003047 265.6446  94.4364 14.98331154 23209,6950.189,96.107,574.172,569.937,0.0
56793.0,STARLINK-6052,PAYLOAD,2023-10-25 21:39:27,14.98342588,0.0003087,69.9998,7.4118,270.7425,89.338,-0.00020902,-2.587e-05,0.0,0 STARLINK-6052,1 56793U 23078AC  23298.90239664 -.00002587  00000-0 -20902-3 0  9993,2 56793  69.9998   7.4118 0003087 270.7425  89.3380 14.98342588 22993,6950.154,96.106,574.164,569.873,0.0
56793.0,STARLINK-6052,PAYLOAD,2023-10-26 13:40:47,14.98335251,0.0003244,69.9999,5.7294,272.8106,87.2682,7.7489e-05,8.32e-06,0.0,0 STARLINK-6052,1 56793U 23078AC  23299.56999330  .00000832  00000-0  77489-4 0  9991,2 56793  69.9999   5.7294 0003244 272.8106  87.2682 14.98335251 23097,6950.177,96.107,574.296,569.787,0.0
56793.0,STARLINK-6052,PAYLOAD,2023-10-27 04:06:00,14.98324446,0.0002926,70.0002,4.2146,267.2665,92.8159,0.00015102,1.709e-05,0.0,0 STARLINK-6052,1 56793U 23078AC  23300.17083558  .00001709  00000-0  15102-3 0  9994,2 56793  70.0002   4.2146 0002926 267.2665  92.8159 14.98324446 23443,6950.21,96.107,574.109,570.041,0.0
56793.0,STARLINK-6052,PAYLOAD,2023-10-27 12:06:39,14.98340191,0.0002864,70.0001,3.3731,264.6508,95.4324,1.6847e-05,1.08e-06,0.0,0 STARLINK-6052,1 56793U 23078AC  23300.50462887  .00000108  00000-0  16847-4 0  9997,2 56793  70.0001   3.3731 0002864 264.6508  95.4324 14.98340191 23493,6950.161,96.106,574.017,570.036,0.0
56793.0,STARLINK-6052,PAYLOAD,2023-10-27 13:42:48,14.98334385,0.0002982,70.0001,3.2048,266.7423,93.3395,0.00012429,1.39e-05,0.0,0 STARLINK-6052,1 56793U 23078AC  23300.57138963  .00001390  00000-0  12429-3 0  9994,2 56793  70.0001   3.2048 0002982 266.7423  93.3395 14.98334385 23249,6950.179,96.107,574.117,569.972,0.0
56793.0,STARLINK-6052,PAYLOAD,2023-10-27 21:43:28,14.983213,0.0003761,70.0005,2.3576,267.5788,92.4941,3.3214e-05,3.03e-06,0.0,0 STARLINK-6052,1 56793U 23078AC  23300.90519669  .00000303  00000-0  33214-4 0  9996,2 56793  70.0005   2.3576 0003761 267.5788  92.4941 14.98321300 23293,6950.22,96.108,574.699,569.471,0.0
56793.0,STARLINK-6052,PAYLOAD,2023-10-28 13:44:50,14.9832533,0.0002978,70.0001,0.6803,267.2563,92.8255,-0.00011249,-1.435e-05,0.0,0 STARLINK-6052,1 56793U 23078AC  23301.57280288 -.00001435  00000-0 -11249-3 0  9994,2 56793  70.0001   0.6803 0002978 267.2563  92.8255 14.98325330 23390,6950.207,96.107,574.142,570.003,0.0
56793.0,STARLINK-6052,PAYLOAD,2023-10-28 21:45:30,14.98332247,0.0003015,69.9998,359.8384,267.1812,92.9002,-6.6804e-05,-8.9e-06,0.0,0 STARLINK-6052,1 56793U 23078AC  23301.90659735 -.00000890  00000-0 -66804-4 0  9990,2 56793  69.9998 359.8384 0003015 267.1812  92.9002 14.98332247 23446,6950.186,96.107,574.146,569.955,0.0
